start=new Date('2021-09-01T00:00:00.000Z').valueOf();
sats=[{"OBJECT_ID":"2021-005Y","CENTER_NAME":"EARTH","CLASSIFICATION_TYPE":"U","BSTAR":"-0.00002760500000","MEAN_MOTION":"15.06394008","SEMIMAJOR_AXIS":"6925.367","MEAN_MOTION_DDOT":"0.0000000000000","TIME_SYSTEM":"UTC","RCS_SIZE":"LARGE","PERIOD":"95.593","NORAD_CAT_ID":"47371","REV_AT_EPOCH":"3416","SITE":"AFETR","INCLINATION":"53.0538","REF_FRAME":"TEME","MEAN_ELEMENT_THEORY":"SGP4","ARG_OF_PERICENTER":"69.4435","ECCENTRICITY":"0.00006740","APOAPSIS":"547.699","GP_ID":"183816412","RA_OF_ASC_NODE":"274.3055","EPHEMERIS_TYPE":"0","COUNTRY_CODE":"US","FILE":"3106313","MEAN_ANOMALY":"290.6626","MEAN_MOTION_DOT":"-0.00000692","TLE_LINE2":"2 47371  53.0538 274.3055 0000674  69.4435 290.6626 15.06394008 34163","PERIAPSIS":"546.765","EPOCH":"2021-08-31T10:54:17.747712","TLE_LINE1":"1 47371U 21005Y   21243.45437208 -.00000692  00000-0 -27605-4 0  9998","LAUNCH_DATE":"2021-01-20","ELEMENT_SET_NO":"999","DECAY_DATE":null,"OBJECT_TYPE":"PAYLOAD","OBJECT_NAME":"STARLINK-2088"},{"BSTAR":"-0.00002060100000","MEAN_MOTION_DDOT":"0.0000000000000","TIME_SYSTEM":"UTC","MEAN_MOTION":"15.06392224","SEMIMAJOR_AXIS":"6925.372","NORAD_CAT_ID":"47372","RCS_SIZE":"LARGE","PERIOD":"95.593","REV_AT_EPOCH":"3423","SITE":"AFETR","OBJECT_ID":"2021-005Z","CENTER_NAME":"EARTH","CLASSIFICATION_TYPE":"U","TLE_LINE2":"2 47372  53.0540 269.1527 0001374  76.8591 283.2551 15.06392224 34237","TLE_LINE1":"1 47372U 21005Z   21243.48522261 -.00000588  00000-0 -20601-4 0  9999","LAUNCH_DATE":"2021-01-20","ELEMENT_SET_NO":"999","PERIAPSIS":"546.286","EPOCH":"2021-08-31T11:38:43.233504","DECAY_DATE":null,"OBJECT_TYPE":"PAYLOAD","OBJECT_NAME":"STARLINK-2089","MEAN_ELEMENT_THEORY":"SGP4","ARG_OF_PERICENTER":"76.8591","INCLINATION":"53.0540","REF_FRAME":"TEME","GP_ID":"183816649","ECCENTRICITY":"0.00013740","APOAPSIS":"548.189","EPHEMERIS_TYPE":"0","RA_OF_ASC_NODE":"269.1527","MEAN_ANOMALY":"283.2551","MEAN_MOTION_DOT":"-0.00000588","COUNTRY_CODE":"US","FILE":"3106313"},{"CENTER_NAME":"EARTH","OBJECT_ID":"2021-005AA","CLASSIFICATION_TYPE":"U","BSTAR":"-0.00002513300000","TIME_SYSTEM":"UTC","MEAN_MOTION_DDOT":"0.0000000000000","SEMIMAJOR_AXIS":"6925.382","MEAN_MOTION":"15.06389137","NORAD_CAT_ID":"47373","PERIOD":"95.593","RCS_SIZE":"LARGE","REV_AT_EPOCH":"3418","SITE":"AFETR","MEAN_ELEMENT_THEORY":"SGP4","ARG_OF_PERICENTER":"84.9557","REF_FRAME":"TEME","INCLINATION":"53.0534","GP_ID":"183842985","APOAPSIS":"548.019","ECCENTRICITY":"0.00011150","EPHEMERIS_TYPE":"0","RA_OF_ASC_NODE":"273.7226","MEAN_ANOMALY":"275.1559","MEAN_MOTION_DOT":"-0.00000656","COUNTRY_CODE":"US","FILE":"3106454","TLE_LINE2":"2 47373  53.0534 273.7226 0001115  84.9557 275.1559 15.06389137 34184","LAUNCH_DATE":"2021-01-20","ELEMENT_SET_NO":"999","TLE_LINE1":"1 47373U 21005AA  21243.58338418 -.00000656  00000-0 -25133-4 0  9991","EPOCH":"2021-08-31T14:00:04.393152","PERIAPSIS":"546.475","OBJECT_TYPE":"PAYLOAD","DECAY_DATE":null,"OBJECT_NAME":"STARLINK-2092"},{"OBJECT_NAME":"STARLINK-2093","OBJECT_TYPE":"PAYLOAD","DECAY_DATE":null,"EPOCH":"2021-08-31T14:21:17.938656","PERIAPSIS":"546.658","ELEMENT_SET_NO":"999","LAUNCH_DATE":"2021-01-20","TLE_LINE1":"1 47374U 21005AB  21243.59812429 -.00000348  00000-0 -44951-5 0  9990","TLE_LINE2":"2 47374  53.0541 273.6699 0000820  86.9653 273.1430 15.06395905 34183","COUNTRY_CODE":"US","FILE":"3106454","MEAN_ANOMALY":"273.1430","MEAN_MOTION_DOT":"-0.00000348","RA_OF_ASC_NODE":"273.6699","EPHEMERIS_TYPE":"0","APOAPSIS":"547.794","ECCENTRICITY":"0.00008200","GP_ID":"183841234","REF_FRAME":"TEME","INCLINATION":"53.0541","MEAN_ELEMENT_THEORY":"SGP4","ARG_OF_PERICENTER":"86.9653","SITE":"AFETR","REV_AT_EPOCH":"3418","RCS_SIZE":"LARGE","PERIOD":"95.592","NORAD_CAT_ID":"47374","SEMIMAJOR_AXIS":"6925.361","MEAN_MOTION":"15.06395905","TIME_SYSTEM":"UTC","MEAN_MOTION_DDOT":"0.0000000000000","BSTAR":"-0.00000449510000","CLASSIFICATION_TYPE":"U","CENTER_NAME":"EARTH","OBJECT_ID":"2021-005AB"},{"GP_ID":"183815913","ECCENTRICITY":"0.00005510","APOAPSIS":"547.634","MEAN_ELEMENT_THEORY":"SGP4","ARG_OF_PERICENTER":"70.1553","INCLINATION":"53.0563","REF_FRAME":"TEME","MEAN_MOTION_DOT":"-0.00000587","MEAN_ANOMALY":"289.9495","FILE":"3106313","COUNTRY_CODE":"US","EPHEMERIS_TYPE":"0","RA_OF_ASC_NODE":"274.4985","TLE_LINE1":"1 47375U 21005AC  21243.41014749 -.00000587  00000-0 -20581-4 0  9998","ELEMENT_SET_NO":"999","LAUNCH_DATE":"2021-01-20","PERIAPSIS":"546.871","EPOCH":"2021-08-31T09:50:36.743136","TLE_LINE2":"2 47375  53.0563 274.4985 0000551  70.1553 289.9495 15.06387371 34151","OBJECT_NAME":"STARLINK-2094","DECAY_DATE":null,"OBJECT_TYPE":"PAYLOAD","OBJECT_ID":"2021-005AC","CENTER_NAME":"EARTH","CLASSIFICATION_TYPE":"U","MEAN_MOTION_DDOT":"0.0000000000000","TIME_SYSTEM":"UTC","MEAN_MOTION":"15.06387371","SEMIMAJOR_AXIS":"6925.387","BSTAR":"-0.00002058100000","SITE":"AFETR","REV_AT_EPOCH":"3415","NORAD_CAT_ID":"47375","PERIOD":"95.593","RCS_SIZE":"LARGE"},{"EPHEMERIS_TYPE":"0","RA_OF_ASC_NODE":"274.4820","MEAN_MOTION_DOT":"-0.00000094","MEAN_ANOMALY":"291.0554","COUNTRY_CODE":"US","FILE":"3106313","ARG_OF_PERICENTER":"69.0528","MEAN_ELEMENT_THEORY":"SGP4","REF_FRAME":"TEME","INCLINATION":"53.0550","GP_ID":"183816150","APOAPSIS":"547.850","ECCENTRICITY":"0.00008690","OBJECT_TYPE":"PAYLOAD","DECAY_DATE":null,"OBJECT_NAME":"STARLINK-2096","TLE_LINE2":"2 47376  53.0550 274.4820 0000869  69.0528 291.0554 15.06388783 34155","ELEMENT_SET_NO":"999","LAUNCH_DATE":"2021-01-20","TLE_LINE1":"1 47376U 21005AD  21243.41383649 -.00000094  00000-0  12586-4 0  9995","EPOCH":"2021-08-31T09:55:55.472736","PERIAPSIS":"546.646","CLASSIFICATION_TYPE":"U","CENTER_NAME":"EARTH","OBJECT_ID":"2021-005AD","NORAD_CAT_ID":"47376","PERIOD":"95.593","RCS_SIZE":"LARGE","REV_AT_EPOCH":"3415","SITE":"AFETR","BSTAR":"0.00001258600000","TIME_SYSTEM":"UTC","MEAN_MOTION_DDOT":"0.0000000000000","SEMIMAJOR_AXIS":"6925.383","MEAN_MOTION":"15.06388783"},{"PERIAPSIS":"546.910","EPOCH":"2021-08-31T14:30:31.294368","TLE_LINE1":"1 47377U 21005AE  21243.60452887  .00000582  00000-0  57929-4 0  9999","LAUNCH_DATE":"2021-01-20","ELEMENT_SET_NO":"999","TLE_LINE2":"2 47377  53.0551 273.6338 0000389  61.2532 298.8497 15.06411195 34186","OBJECT_NAME":"STARLINK-2097","DECAY_DATE":null,"OBJECT_TYPE":"PAYLOAD","ECCENTRICITY":"0.00003890","APOAPSIS":"547.449","GP_ID":"183842486","INCLINATION":"53.0551","REF_FRAME":"TEME","MEAN_ELEMENT_THEORY":"SGP4","ARG_OF_PERICENTER":"61.2532","COUNTRY_CODE":"US","FILE":"3106454","MEAN_MOTION_DOT":"0.00000582","MEAN_ANOMALY":"298.8497","RA_OF_ASC_NODE":"273.6338","EPHEMERIS_TYPE":"0","MEAN_MOTION":"15.06411195","SEMIMAJOR_AXIS":"6925.314","MEAN_MOTION_DDOT":"0.0000000000000","TIME_SYSTEM":"UTC","BSTAR":"0.00005792900000","SITE":"AFETR","REV_AT_EPOCH":"3418","RCS_SIZE":"LARGE","PERIOD":"95.591","NORAD_CAT_ID":"47377","OBJECT_ID":"2021-005AE","CENTER_NAME":"EARTH","CLASSIFICATION_TYPE":"U"},{"ARG_OF_PERICENTER":"57.7926","MEAN_ELEMENT_THEORY":"SGP4","REF_FRAME":"TEME","INCLINATION":"53.0533","GP_ID":"183815162","APOAPSIS":"547.834","ECCENTRICITY":"0.00009440","EPHEMERIS_TYPE":"0","RA_OF_ASC_NODE":"234.2726","MEAN_MOTION_DOT":"0.00001408","MEAN_ANOMALY":"302.3154","FILE":"3106313","COUNTRY_CODE":"US","TLE_LINE2":"2 47378  53.0533 234.2726 0000944  57.7926 302.3154 15.06410831 34722","LAUNCH_DATE":"2021-01-20","ELEMENT_SET_NO":"999","TLE_LINE1":"1 47378U 21005AF  21243.45805909  .00001408  00000-0  11338-3 0  9991","EPOCH":"2021-08-31T10:59:36.305376","PERIAPSIS":"546.527","OBJECT_TYPE":"PAYLOAD","DECAY_DATE":null,"OBJECT_NAME":"STARLINK-2098","CENTER_NAME":"EARTH","OBJECT_ID":"2021-005AF","CLASSIFICATION_TYPE":"U","BSTAR":"0.00011338000000","TIME_SYSTEM":"UTC","MEAN_MOTION_DDOT":"0.0000000000000","SEMIMAJOR_AXIS":"6925.315","MEAN_MOTION":"15.06410831","NORAD_CAT_ID":"47378","PERIOD":"95.591","RCS_SIZE":"LARGE","SITE":"AFETR","REV_AT_EPOCH":"3472"},{"OBJECT_ID":"2021-005AG","CENTER_NAME":"EARTH","CLASSIFICATION_TYPE":"U","BSTAR":"0.00012444000000","MEAN_MOTION_DDOT":"0.0000000000000","TIME_SYSTEM":"UTC","MEAN_MOTION":"15.06412863","SEMIMAJOR_AXIS":"6925.309","NORAD_CAT_ID":"47379","RCS_SIZE":"LARGE","PERIOD":"95.591","SITE":"AFETR","REV_AT_EPOCH":"3475","ARG_OF_PERICENTER":"24.9453","MEAN_ELEMENT_THEORY":"SGP4","INCLINATION":"53.0517","REF_FRAME":"TEME","GP_ID":"183841984","ECCENTRICITY":"0.00008320","APOAPSIS":"547.750","EPHEMERIS_TYPE":"0","RA_OF_ASC_NODE":"233.3533","MEAN_ANOMALY":"335.1576","MEAN_MOTION_DOT":"0.00001573","COUNTRY_CODE":"US","FILE":"3106454","TLE_LINE2":"2 47379  53.0517 233.3533 0000832  24.9453 335.1576 15.06412863 34750","TLE_LINE1":"1 47379U 21005AG  21243.66446077  .00001573  00000-0  12444-3 0  9994","ELEMENT_SET_NO":"999","LAUNCH_DATE":"2021-01-20","PERIAPSIS":"546.598","EPOCH":"2021-08-31T15:56:49.410528","DECAY_DATE":null,"OBJECT_TYPE":"PAYLOAD","OBJECT_NAME":"STARLINK-2099"},{"NORAD_CAT_ID":"47380","PERIOD":"95.593","RCS_SIZE":"LARGE","SITE":"AFETR","REV_AT_EPOCH":"3462","BSTAR":"-0.00003020200000","MEAN_MOTION_DDOT":"0.0000000000000","TIME_SYSTEM":"UTC","MEAN_MOTION":"15.06392630","SEMIMAJOR_AXIS":"6925.371","CLASSIFICATION_TYPE":"U","OBJECT_ID":"2021-005AH","CENTER_NAME":"EARTH","DECAY_DATE":null,"OBJECT_TYPE":"PAYLOAD","OBJECT_NAME":"STARLINK-2100","TLE_LINE2":"2 47380  53.0561 243.2309 0000489  33.9309 326.1711 15.06392630 34626","TLE_LINE1":"1 47380U 21005AH  21243.69303869 -.00000731  00000-0 -30202-4 0  9990","LAUNCH_DATE":"2021-01-20","ELEMENT_SET_NO":"999","PERIAPSIS":"546.897","EPOCH":"2021-08-31T16:37:58.542816","EPHEMERIS_TYPE":"0","RA_OF_ASC_NODE":"243.2309","MEAN_MOTION_DOT":"-0.00000731","MEAN_ANOMALY":"326.1711","COUNTRY_CODE":"US","FILE":"3106454","ARG_OF_PERICENTER":"33.9309","MEAN_ELEMENT_THEORY":"SGP4","INCLINATION":"53.0561","REF_FRAME":"TEME","GP_ID":"183842736","ECCENTRICITY":"0.00004890","APOAPSIS":"547.575"}];
